start=new Date('2023-05-03T00:00:00.000Z').valueOf();
sats=[{"EPOCH":"2023-05-02T17:46:05.942784","APOAPSIS":"564.859","PERIAPSIS":"561.077","OBJECT_TYPE":"PAYLOAD","ECCENTRICITY":"0.00027240","SEMIMAJOR_AXIS":"6941.103","CENTER_NAME":"EARTH","TIME_SYSTEM":"UTC","FILE":"3899277","INCLINATION":"97.6545","REV_AT_EPOCH":"4459","ELEMENT_SET_NO":"999","TLE_LINE1":"1 53086U 22077AV  23122.74034656  .00001271  00000-0  10348-3 0  9995","MEAN_MOTION":"15.01274251","OBJECT_ID":"2022-077AV","OBJECT_NAME":"STARLINK-4318","MEAN_MOTION_DDOT":"0.0000000000000","RCS_SIZE":"LARGE","MEAN_MOTION_DOT":"0.00001271","GP_ID":"231124509","ARG_OF_PERICENTER":"186.8388","EPHEMERIS_TYPE":"0","TLE_LINE2":"2 53086  97.6545 304.4566 0002724 186.8388 173.2800 15.01274251 44596","SITE":"AFWTR","REF_FRAME":"TEME","BSTAR":"0.00010348000000","MEAN_ELEMENT_THEORY":"SGP4","NORAD_CAT_ID":"53086","CLASSIFICATION_TYPE":"U","COUNTRY_CODE":"US","MEAN_ANOMALY":"173.2800","LAUNCH_DATE":"2022-07-11","DECAY_DATE":null,"RA_OF_ASC_NODE":"304.4566","PERIOD":"95.919"},{"ELEMENT_SET_NO":"999","INCLINATION":"97.6549","REV_AT_EPOCH":"4459","FILE":"3899277","TLE_LINE1":"1 53087U 22077AW  23122.73734028  .00000401  00000-0  36538-4 0  9999","TIME_SYSTEM":"UTC","CENTER_NAME":"EARTH","SEMIMAJOR_AXIS":"6943.634","ECCENTRICITY":"0.00015970","OBJECT_TYPE":"PAYLOAD","APOAPSIS":"566.608","EPOCH":"2023-05-02T17:41:46.200192","PERIAPSIS":"564.390","NORAD_CAT_ID":"53087","CLASSIFICATION_TYPE":"U","MEAN_ELEMENT_THEORY":"SGP4","BSTAR":"0.00003653800000","REF_FRAME":"TEME","DECAY_DATE":null,"LAUNCH_DATE":"2022-07-11","RA_OF_ASC_NODE":"304.4488","PERIOD":"95.971","MEAN_ANOMALY":"262.5226","COUNTRY_CODE":"US","ARG_OF_PERICENTER":"97.6179","GP_ID":"231124760","TLE_LINE2":"2 53087  97.6549 304.4488 0001597  97.6179 262.5226 15.00453396 44590","SITE":"AFWTR","EPHEMERIS_TYPE":"0","RCS_SIZE":"LARGE","MEAN_MOTION_DOT":"0.00000401","OBJECT_ID":"2022-077AW","MEAN_MOTION":"15.00453396","MEAN_MOTION_DDOT":"0.0000000000000","OBJECT_NAME":"STARLINK-4329"},{"TLE_LINE1":"1 53088U 22077AX  23122.73665581 -.00000566  00000-0 -39458-4 0  9995","FILE":"3899277","ELEMENT_SET_NO":"999","INCLINATION":"97.6546","REV_AT_EPOCH":"4459","CENTER_NAME":"EARTH","SEMIMAJOR_AXIS":"6941.171","TIME_SYSTEM":"UTC","OBJECT_TYPE":"PAYLOAD","ECCENTRICITY":"0.00042770","PERIAPSIS":"560.068","EPOCH":"2023-05-02T17:40:47.061984","APOAPSIS":"566.005","COUNTRY_CODE":"US","DECAY_DATE":null,"LAUNCH_DATE":"2022-07-11","RA_OF_ASC_NODE":"304.4529","PERIOD":"95.920","MEAN_ANOMALY":"196.5857","MEAN_ELEMENT_THEORY":"SGP4","BSTAR":"-0.00003945800000","REF_FRAME":"TEME","CLASSIFICATION_TYPE":"U","NORAD_CAT_ID":"53088","TLE_LINE2":"2 53088  97.6546 304.4529 0004277 163.5507 196.5857 15.01252044 44594","SITE":"AFWTR","EPHEMERIS_TYPE":"0","GP_ID":"231125504","ARG_OF_PERICENTER":"163.5507","MEAN_MOTION_DOT":"-0.00000566","RCS_SIZE":"LARGE","OBJECT_NAME":"STARLINK-4333","MEAN_MOTION_DDOT":"0.0000000000000","OBJECT_ID":"2022-077AX","MEAN_MOTION":"15.01252044"},{"OBJECT_NAME":"STARLINK-4063","MEAN_MOTION_DDOT":"0.0000000000000","MEAN_MOTION":"15.08829051","OBJECT_ID":"2022-083A","RCS_SIZE":"LARGE","MEAN_MOTION_DOT":"-0.00000581","SITE":"AFETR","TLE_LINE2":"2 53132  53.2167 172.6314 0001255 112.7541 247.3584 15.08829051 44514","EPHEMERIS_TYPE":"0","GP_ID":"231098321","ARG_OF_PERICENTER":"112.7541","COUNTRY_CODE":"US","MEAN_ANOMALY":"247.3584","RA_OF_ASC_NODE":"172.6314","DECAY_DATE":null,"LAUNCH_DATE":"2022-07-17","PERIOD":"95.438","REF_FRAME":"TEME","MEAN_ELEMENT_THEORY":"SGP4","BSTAR":"-0.00001844700000","CLASSIFICATION_TYPE":"U","NORAD_CAT_ID":"53132","PERIAPSIS":"538.911","EPOCH":"2023-05-02T12:17:40.603200","APOAPSIS":"540.647","OBJECT_TYPE":"PAYLOAD","ECCENTRICITY":"0.00012550","SEMIMAJOR_AXIS":"6917.914","CENTER_NAME":"EARTH","TIME_SYSTEM":"UTC","TLE_LINE1":"1 53132U 22083A   23122.51227550 -.00000581  00000-0 -18447-4 0  9990","FILE":"3899138","REV_AT_EPOCH":"4451","INCLINATION":"53.2167","ELEMENT_SET_NO":"999"},{"PERIAPSIS":"538.856","EPOCH":"2023-05-02T09:33:22.232736","APOAPSIS":"540.561","OBJECT_TYPE":"PAYLOAD","ECCENTRICITY":"0.00012330","SEMIMAJOR_AXIS":"6917.843","CENTER_NAME":"EARTH","TIME_SYSTEM":"UTC","TLE_LINE1":"1 53133U 22083B   23122.39817399  .00004233  00000-0  28378-3 0  9992","FILE":"3899068","INCLINATION":"53.2164","REV_AT_EPOCH":"4385","ELEMENT_SET_NO":"999","OBJECT_NAME":"STARLINK-4154","MEAN_MOTION_DDOT":"0.0000000000000","MEAN_MOTION":"15.08852078","OBJECT_ID":"2022-083B","MEAN_MOTION_DOT":"0.00004233","RCS_SIZE":"LARGE","SITE":"AFETR","TLE_LINE2":"2 53133  53.2164 173.1492 0001233  97.5264 262.5868 15.08852078 43858","EPHEMERIS_TYPE":"0","ARG_OF_PERICENTER":"97.5264","GP_ID":"231093814","COUNTRY_CODE":"US","MEAN_ANOMALY":"262.5868","DECAY_DATE":null,"LAUNCH_DATE":"2022-07-17","PERIOD":"95.437","RA_OF_ASC_NODE":"173.1492","REF_FRAME":"TEME","MEAN_ELEMENT_THEORY":"SGP4","BSTAR":"0.00028378000000","CLASSIFICATION_TYPE":"U","NORAD_CAT_ID":"53133"},{"APOAPSIS":"540.391","EPOCH":"2023-05-02T12:28:14.871648","PERIAPSIS":"539.042","ECCENTRICITY":"0.00009750","OBJECT_TYPE":"PAYLOAD","TIME_SYSTEM":"UTC","SEMIMAJOR_AXIS":"6917.852","CENTER_NAME":"EARTH","REV_AT_EPOCH":"4388","INCLINATION":"53.2138","ELEMENT_SET_NO":"999","FILE":"3899068","TLE_LINE1":"1 53134U 22083C   23122.51961657  .00004561  00000-0  30439-3 0  9999","MEAN_MOTION":"15.08849435","OBJECT_ID":"2022-083C","MEAN_MOTION_DDOT":"0.0000000000000","OBJECT_NAME":"STARLINK-4150","MEAN_MOTION_DOT":"0.00004561","RCS_SIZE":"LARGE","GP_ID":"231094064","ARG_OF_PERICENTER":"87.9422","EPHEMERIS_TYPE":"0","TLE_LINE2":"2 53134  53.2138 172.6024 0000975  87.9422 272.1682 15.08849435 43883","SITE":"AFETR","NORAD_CAT_ID":"53134","CLASSIFICATION_TYPE":"U","REF_FRAME":"TEME","BSTAR":"0.00030439000000","MEAN_ELEMENT_THEORY":"SGP4","MEAN_ANOMALY":"272.1682","DECAY_DATE":null,"LAUNCH_DATE":"2022-07-17","PERIOD":"95.437","RA_OF_ASC_NODE":"172.6024","COUNTRY_CODE":"US"},{"EPHEMERIS_TYPE":"0","TLE_LINE2":"2 53135  53.2145 171.9694 0001104  98.6816 261.4301 15.08849599 44890","SITE":"AFETR","GP_ID":"231125263","ARG_OF_PERICENTER":"98.6816","COUNTRY_CODE":"US","MEAN_ANOMALY":"261.4301","LAUNCH_DATE":"2022-07-17","DECAY_DATE":null,"RA_OF_ASC_NODE":"171.9694","PERIOD":"95.437","REF_FRAME":"TEME","MEAN_ELEMENT_THEORY":"SGP4","BSTAR":"0.00028354000000","CLASSIFICATION_TYPE":"U","NORAD_CAT_ID":"53135","OBJECT_NAME":"STARLINK-4023","MEAN_MOTION_DDOT":"0.0000000000000","MEAN_MOTION":"15.08849599","OBJECT_ID":"2022-083D","MEAN_MOTION_DOT":"0.00004229","RCS_SIZE":"LARGE","SEMIMAJOR_AXIS":"6917.851","CENTER_NAME":"EARTH","TIME_SYSTEM":"UTC","TLE_LINE1":"1 53135U 22083D   23122.65945444  .00004229  00000-0  28354-3 0  9995","FILE":"3899277","REV_AT_EPOCH":"4489","INCLINATION":"53.2145","ELEMENT_SET_NO":"999","PERIAPSIS":"538.952","EPOCH":"2023-05-02T15:49:36.863616","APOAPSIS":"540.480","OBJECT_TYPE":"PAYLOAD","ECCENTRICITY":"0.00011040"},{"MEAN_MOTION_DOT":"0.00004297","RCS_SIZE":"LARGE","MEAN_MOTION_DDOT":"0.0000000000000","OBJECT_NAME":"STARLINK-4152","OBJECT_ID":"2022-083E","MEAN_MOTION":"15.08852421","LAUNCH_DATE":"2022-07-17","DECAY_DATE":null,"PERIOD":"95.437","RA_OF_ASC_NODE":"172.5821","MEAN_ANOMALY":"266.5773","COUNTRY_CODE":"US","NORAD_CAT_ID":"53136","CLASSIFICATION_TYPE":"U","BSTAR":"0.00028781000000","MEAN_ELEMENT_THEORY":"SGP4","REF_FRAME":"TEME","EPHEMERIS_TYPE":"0","TLE_LINE2":"2 53136  53.2145 172.5821 0001027  93.5336 266.5773 15.08852421 44870","SITE":"AFETR","GP_ID":"231093063","ARG_OF_PERICENTER":"93.5336","ECCENTRICITY":"0.00010270","OBJECT_TYPE":"PAYLOAD","PERIAPSIS":"538.997","APOAPSIS":"540.418","EPOCH":"2023-05-02T12:33:32.580000","TLE_LINE1":"1 53136U 22083E   23122.52329375  .00004297  00000-0  28781-3 0  9990","ELEMENT_SET_NO":"999","REV_AT_EPOCH":"4487","INCLINATION":"53.2145","FILE":"3899068","TIME_SYSTEM":"UTC","CENTER_NAME":"EARTH","SEMIMAJOR_AXIS":"6917.842"},{"TLE_LINE2":"2 53137  53.2162 172.6149 0001092  89.4012 270.7106 15.08848151 43883","SITE":"AFETR","EPHEMERIS_TYPE":"0","GP_ID":"231094315","ARG_OF_PERICENTER":"89.4012","RA_OF_ASC_NODE":"172.6149","DECAY_DATE":null,"LAUNCH_DATE":"2022-07-17","PERIOD":"95.437","MEAN_ANOMALY":"270.7106","COUNTRY_CODE":"US","CLASSIFICATION_TYPE":"U","NORAD_CAT_ID":"53137","MEAN_ELEMENT_THEORY":"SGP4","BSTAR":"0.00029264000000","REF_FRAME":"TEME","MEAN_MOTION_DDOT":"0.0000000000000","OBJECT_NAME":"STARLINK-4145","OBJECT_ID":"2022-083F","MEAN_MOTION":"15.08848151","RCS_SIZE":"LARGE","MEAN_MOTION_DOT":"0.00004374","TIME_SYSTEM":"UTC","CENTER_NAME":"EARTH","SEMIMAJOR_AXIS":"6917.855","TLE_LINE1":"1 53137U 22083F   23122.51593699  .00004374  00000-0  29264-3 0  9995","ELEMENT_SET_NO":"999","REV_AT_EPOCH":"4388","INCLINATION":"53.2162","FILE":"3899068","PERIAPSIS":"538.965","APOAPSIS":"540.476","EPOCH":"2023-05-02T12:22:56.955936","ECCENTRICITY":"0.00010920","OBJECT_TYPE":"PAYLOAD"},{"ELEMENT_SET_NO":"999","INCLINATION":"53.2149","REV_AT_EPOCH":"4472","FILE":"3899068","TLE_LINE1":"1 53138U 22083G   23122.51457863  .00002802  00000-0  19400-3 0  9993","TIME_SYSTEM":"UTC","CENTER_NAME":"EARTH","SEMIMAJOR_AXIS":"6917.856","ECCENTRICITY":"0.00014270","OBJECT_TYPE":"PAYLOAD","APOAPSIS":"540.708","EPOCH":"2023-05-02T12:20:59.593632","PERIAPSIS":"538.733","NORAD_CAT_ID":"53138","CLASSIFICATION_TYPE":"U","BSTAR":"0.00019400000000","MEAN_ELEMENT_THEORY":"SGP4","REF_FRAME":"TEME","DECAY_DATE":null,"RA_OF_ASC_NODE":"167.8064","LAUNCH_DATE":"2022-07-17","PERIOD":"95.437","MEAN_ANOMALY":"283.1263","COUNTRY_CODE":"US","GP_ID":"231094564","ARG_OF_PERICENTER":"76.9889","SITE":"AFETR","TLE_LINE2":"2 53138  53.2149 167.8064 0001427  76.9889 283.1263 15.08848141 44721","EPHEMERIS_TYPE":"0","MEAN_MOTION_DOT":"0.00002802","RCS_SIZE":"LARGE","OBJECT_ID":"2022-083G","MEAN_MOTION":"15.08848141","MEAN_MOTION_DDOT":"0.0000000000000","OBJECT_NAME":"STARLINK-4141"}];
